MEAN_MOTION;ECCENTRICITY;INCLINATION;RA_OF_ASC_NODE;ARG_OF_PERICENTER;MEAN_ANOMALY;BSTAR;MEAN_MOTION_DOT;MEAN_MOTION_DDOT;TYPE
1.00272586;0.0002385;0.0132;142.9051;221.8989;277.2195;0;3.9E-7;0;Intelsat
1.00272636;0.0002404;0.0107;131.7584;233.5282;46.7039;0;3.8E-7;0;Intelsat
1.00272783;0.0002441;0.0126;129.4166;237.5517;304.1849;0;3.5E-7;0;Intelsat
1.00272832;0.0002456;0.0135;127.6187;239.7957;47.3969;0;3.4E-7;0;Intelsat
1.00273005;0.0002491;0.0159;126.0745;243.6336;304.2236;0;3.2E-7;0;Intelsat
1.00274423;0.0002739;0.0176;240.7451;129.2831;121.7913;0;3.1E-7;0;Intelsat
1.00267266;0.0002571;0.0178;242.3841;137.9938;183.1337;0;2.9E-7;0;Intelsat
1.00268158;0.0002595;0.0166;239.1936;140.8099;270.8401;0;2.9E-7;0;Intelsat
1.00268588;0.0002624;0.0165;238.9676;141.0535;296.6571;0;2.9E-7;0;Intelsat
1.00268284;0.000264;0.0133;232.9355;149.0781;175.7134;0;2.7E-7;0;Intelsat
1.0026827;0.0002645;0.0126;230.8295;151.2615;215.7081;0;2.7E-7;0;Intelsat
1.00268599;0.0002693;0.0098;221.5956;162.5921;168.5797;0;2.6E-7;0;Intelsat
1.00268768;0.0002689;0.0136;213.8921;171.7065;219.002;0;2.6E-7;0;Intelsat
1.00270985;0.0002636;0.0176;209.3312;174.3351;42.3485;0;2.7E-7;0;Intelsat
1.00271293;0.0002657;0.0197;204.9044;180.3765;273.9562;0;2.7E-7;0;Intelsat
1.00270397;0.0002812;0.025;190.9634;201.66;49.3434;0;2.7E-7;0;Intelsat
1.00271899;0.0002816;0.0024;170.2101;223.4059;138.8498;0;2.8E-7;0;Intelsat
1.00271981;0.0002785;0.0014;197.9427;194.3466;269.7484;0;2.8E-7;0;Intelsat
1.00272357;0.0002787;0.001;185.0586;208.3314;271.4341;0;2.9E-7;0;Intelsat
1.0027248;0.0002766;0.0156;186.7383;205.5351;142.0316;0;3.0E-7;0;Intelsat
1.00272731;0.0002787;0.0008;184.0598;210.2752;273.3088;0;3.0E-7;0;Intelsat
1.00273242;0.0002821;0.018;180.0463;217.4637;233.2949;0;3.1E-7;0;Intelsat
1.00273627;0.0002818;0.0192;172.8746;225.728;274.6708;0;3.2E-7;0;Intelsat
1.00273885;0.0002819;0.0194;169.9029;229.2096;192.3954;0;3.3E-7;0;Intelsat
1.00273974;0.0002822;0.0184;168.2365;231.0905;276.7488;0;3.3E-7;0;Intelsat
1.00271253;0.0002656;0.0172;163.4077;233.3476;104.4912;0;3.3E-7;0;Intelsat
1.00271264;0.0002653;0.0171;161.6782;235.6013;176.2507;0;3.3E-7;0;Intelsat
1.00271006;0.0002659;0.0158;159.6607;238.4553;280.7158;0;3.3E-7;0;Intelsat
1.00271369;0.0002662;0.0126;150.2951;248.6352;127.2277;0;3.4E-7;0;Intelsat
1.00271415;0.0002658;0.0103;143.0224;256.0413;180.2683;0;3.4E-7;0;Intelsat
1.0027151;0.0002664;0.0108;141.2235;258.2634;282.1466;0;3.4E-7;0;Intelsat
1.00271738;0.0002656;0.0126;136.3928;263.5506;129.0093;0;3.5E-7;0;Intelsat
1.00271877;0.0002651;0.0139;134.2538;266.0281;284.1599;0;3.6E-7;0;Intelsat
1.00272087;0.0002641;0.0161;130.0216;270.7043;156.9376;0;3.7E-7;0;Intelsat
1.00272188;0.0002641;0.017;128.3928;272.7426;286.0436;0;3.8E-7;0;Intelsat
1.00275836;0.0002437;0.0161;249.6634;147.1314;267.3414;0;4.0E-7;0;Intelsat
1.00276667;0.0002465;0.0135;244.95;152.1671;269.8353;0;4.3E-7;0;Intelsat
1.00276941;0.0002453;0.0107;240.7642;156.205;249.5234;0;4.5E-7;0;Intelsat
1.00276976;0.0002446;0.0107;240.4307;156.2234;273.1108;0;4.5E-7;0;Intelsat
1.00270064;0.0002194;0.0112;238.0253;150.4384;50.8998;0;4.5E-7;0;Intelsat
1.00270451;0.000217;0.0161;229.7797;157.8564;284.94;0;4.6E-7;0;Intelsat
1.0027062;0.0002176;0.0185;230.0553;157.7964;196.9113;0;4.8E-7;0;Intelsat
1.00270693;0.000217;0.019;227.5321;160.1784;284.5564;0;4.9E-7;0;Intelsat
1.00270767;0.0002165;0.0194;227.2631;160.371;57.3028;0;4.9E-7;0;Intelsat
1.00270844;0.0002178;0.0205;226.8407;160.603;197.5888;0;5.0E-7;0;Intelsat
1.00270886;0.0002181;0.0207;224.7808;162.836;290.5504;0;5.0E-7;0;Intelsat
1.00269355;0.000221;0.0224;217.5235;168.363;320.4505;0;5.0E-7;0;Intelsat
1.00270942;0.0002211;0.0009;192.6715;194.4846;293.8072;0;5.1E-7;0;Intelsat
1.00269953;0.0002267;0.0189;210.9244;176.6099;157.5723;0;5.0E-7;0;Intelsat
1.00270091;0.0002293;0.0182;209.3055;177.9658;296.4202;0;5.0E-7;0;Intelsat
1.0027037;0.0002332;0.0171;201.5377;186.7246;272.3728;0;4.9E-7;0;Intelsat
1.00271143;0.0002336;0.0176;188.2082;200.2501;41.7716;0;4.8E-7;0;Intelsat
1.00271312;0.0002363;0.0173;184.6372;204.789;274.0436;0;4.7E-7;0;Intelsat
1.00272552;0.0002301;0.0174;185.3224;203.0443;134.6323;0;4.5E-7;0;Intelsat
1.00272695;0.0002305;0.0173;185.6001;202.877;264.3474;0;4.4E-7;0;Intelsat
1.00272845;0.000233;0.0167;177.818;211.572;176.0356;0;4.1E-7;0;Intelsat
1.00272907;0.0002356;0.0162;174.72;215.3884;304.872;0;4.0E-7;0;Intelsat
1.00273046;0.000239;0.0117;150.4672;240.5623;177.184;0;3.8E-7;0;Intelsat
1.00273109;0.000241;0.0121;146.838;245.0302;280.0105;0;3.7E-7;0;Intelsat
1.00268501;0.0002496;0.0162;261.8536;137.8567;190.1076;0;3.4E-7;0;Intelsat
1.0026995;0.0002547;0.0155;260.9435;137.5517;302.0205;0;3.4E-7;0;Intelsat
1.00270247;0.0002607;0.0137;258.9655;141.1844;173.6779;0;3.2E-7;0;Intelsat
1.00270354;0.0002618;0.0129;258.0573;142.7851;264.7287;0;3.2E-7;0;Intelsat
1.0027069;0.0002687;0.0145;247.6974;155.3136;277.2437;0;3.1E-7;0;Intelsat
1.00271017;0.0002746;0.0165;246.6992;158.4882;257.4104;0;3.1E-7;0;Intelsat
1.00271334;0.0002757;0.0189;246.1389;160.688;261.4349;0;3.2E-7;0;Intelsat
1.00271469;0.0002791;0.0193;247.0932;161.1147;38.6101;0;3.3E-7;0;Intelsat
1.00270688;0.0002996;0.0211;240.4005;175.1927;273.0578;0;3.3E-7;0;Intelsat
1.0027198;0.0002961;0.0147;244.3667;170.4572;43.4085;0;3.4E-7;0;Intelsat
1.00270866;0.0003013;0.0181;240.2967;176.2506;274.9348;0;3.4E-7;0;Intelsat
1.00271041;0.0003022;0.0174;239.2632;178.2527;43.4562;0;3.5E-7;0;Intelsat
1.00271285;0.0003041;0.0151;238.1062;180.5992;275.5593;0;3.6E-7;0;Intelsat
1.00271531;0.0003046;0.0132;233.2325;186.8968;149.6319;0;3.6E-7;0;Intelsat
1.00271626;0.0003052;0.0127;233.0839;187.3266;250.7427;0;3.7E-7;0;Intelsat
1.00273257;0.0003044;0.013;221.4274;200.3868;149.5143;0;3.7E-7;0;Intelsat
1.00273288;0.0003048;0.0131;219.1718;202.7697;180.1508;0;3.8E-7;0;Intelsat
1.00273378;0.0003049;0.0135;224.5366;197.3299;252.0916;0;3.8E-7;0;Intelsat
1.00273578;0.0003038;0.0122;214.5253;207.8698;150.1598;0;3.8E-7;0;Intelsat
1.00273595;0.0003042;0.0134;218.0194;203.9496;179.5943;0;3.8E-7;0;Intelsat
1.00273695;0.0003043;0.0124;217.9691;204.5407;254.2745;0;3.9E-7;0;Intelsat
1.00273826;0.0003016;0.0113;216.5277;204.8615;180.4901;0;3.9E-7;0;Intelsat
1.00273905;0.0003018;0.011;212.3195;209.2762;257.9908;0;4.0E-7;0;Intelsat
1.00274266;0.0003009;0.0121;183.2214;239.6516;259.516;0;4.1E-7;0;Intelsat
1.0027011;0.0002698;0.0196;130.8363;286.8848;168.8764;0;4.2E-7;0;Intelsat
1.00269216;0.0002706;0.0205;128.0248;291.3495;265.8223;0;4.2E-7;0;Intelsat
1.00269506;0.0002677;0.0344;90.2968;329.115;164.9222;0;4.3E-7;0;Intelsat
1.00269583;0.000268;0.0392;69.7198;349.9515;268.314;0;4.4E-7;0;Intelsat
1.00269701;0.0002668;0.0265;72.5695;347.4905;37.4759;0;4.5E-7;0;Intelsat
1.00269497;0.0002581;0.0144;269.4373;153.291;159.2858;0;4.6E-7;0;Intelsat
1.00270543;0.0002505;0.0148;270.8293;151.8572;190.3489;0;4.6E-7;0;Intelsat
1.00272883;0.0002334;0.0135;270.4602;144.59;45.2934;0;4.8E-7;0;Intelsat
1.00274326;0.0002442;0.0123;270.5087;146.0963;264.7494;0;5.0E-7;0;Intelsat
1.00274524;0.0002412;0.0121;273.9337;142.8235;206.4294;0;5.2E-7;0;Intelsat
1.00274577;0.0002404;0.0134;267.1245;149.6756;279.5442;0;5.2E-7;0;Intelsat
1.00272258;0.0002185;0.0153;267.2331;149.2492;127.1962;0;5.3E-7;0;Intelsat
1.00272273;0.0002183;0.015;271.1418;145.2882;155.2167;0;5.4E-7;0;Intelsat
1.00271536;0.0002239;0.0158;269.3061;144.3621;285.4829;0;5.4E-7;0;Intelsat
1.00271714;0.0002229;0.0173;272.4523;141.1659;158.7537;0;5.6E-7;0;Intelsat
1.00271725;0.0002228;0.0157;274.4417;139.1104;184.7366;0;5.6E-7;0;Intelsat
1.00271784;0.0002217;0.0179;271.6875;141.8745;288.372;0;5.6E-7;0;Intelsat
1.00271916;0.0002213;0.0184;276.6978;137.0472;187.353;0;5.7E-7;0;Intelsat
1.00271944;0.0002211;0.0184;276.9705;136.7621;251.4713;0;5.7E-7;0;Intelsat
1.00270891;0.0002204;0.0194;277.3289;135.8063;164.8167;0;5.7E-7;0;Intelsat
1.00271027;0.0002209;0.0185;280.2465;132.3564;294.9027;0;5.7E-7;0;Intelsat
1.00271247;0.0002226;0.0161;281.9079;131.633;170.0567;0;5.7E-7;0;Intelsat
1.00271331;0.0002237;0.0158;283.8371;129.4111;260.7102;0;5.7E-7;0;Intelsat
1.00271609;0.0002279;0.0122;288.5447;125.505;273.1749;0;5.5E-7;0;Intelsat
1.00272309;0.0002293;0.0126;290.169;124.7416;163.5398;0;5.3E-7;0;Intelsat
1.00272606;0.0002334;0.0085;292.7842;121.8039;252.2385;0;4.9E-7;0;Intelsat
1.00272229;0.0002315;0.0072;287.5257;127.5592;261.5991;0;4.6E-7;0;Intelsat
1.00272259;0.0002356;0.003;97.9605;318.0603;49.2137;0;4.4E-7;0;Intelsat
1.00272417;0.0002372;0.0024;81.0078;335.3812;203.6809;0;4.3E-7;0;Intelsat
1.00272449;0.0002393;0.0037;100.9345;316.08;281.4369;0;4.2E-7;0;Intelsat
1.00272482;0.0002419;0.0025;85.454;332.0741;24.592;0;4.2E-7;0;Intelsat
1.00270513;0.0002517;0.0134;280.9218;140.3345;279.9949;0;4.0E-7;0;Intelsat
1.00270957;0.0002595;0.011;284.3444;138.4532;272.5713;0;3.9E-7;0;Intelsat
1.00271095;0.0002632;0.0124;284.7416;138.589;67.3489;0;3.8E-7;0;Intelsat
1.00271307;0.000267;0.0141;282.219;142.5737;282.0418;0;3.8E-7;0;Intelsat
1.00271562;0.0002731;0.0162;286.2235;139.7387;155.2679;0;3.9E-7;0;Intelsat
1.00271698;0.0002747;0.0165;288.3354;138.544;282.7681;0;3.9E-7;0;Intelsat
1.002703;0.000273;0.0184;293.527;133.9217;233.1654;0;3.9E-7;0;Intelsat
1.00270583;0.0002746;0.0186;292.3907;135.1179;284.9075;0;4.0E-7;0;Intelsat
1.00270149;0.0002986;0.0215;297.9817;134.9922;162.8146;0;4.0E-7;0;Intelsat
1.00270278;0.0002984;0.0214;300.8612;132.9328;249.7701;0;4.1E-7;0;Intelsat
1.00271656;0.0002984;0.0123;299.3015;135.5901;49.899;0;4.1E-7;0;Intelsat
1.00270735;0.0003007;0.0192;309.461;126.1203;256.5318;0;4.2E-7;0;Intelsat
1.00270874;0.0003024;0.0183;311.2609;125.643;24.7926;0;4.2E-7;0;Intelsat
1.00271144;0.0003021;0.0167;320.2357;117.2661;283.304;0;4.3E-7;0;Intelsat
1.00271247;0.0003022;0.0161;321.1392;116.961;26.3738;0;4.3E-7;0;Intelsat
1.00271394;0.0003031;0.015;326.2707;112.7621;194.3431;0;4.3E-7;0;Intelsat
1.00271457;0.000303;0.015;329.916;109.1595;262.6885;0;4.3E-7;0;Intelsat
1.00272975;0.0003019;0.015;345.9904;94.5597;159.7667;0;4.4E-7;0;Intelsat
1.00273122;0.0003015;0.0156;348.3736;92.3714;285.6733;0;4.4E-7;0;Intelsat
